[Satellite]
VERSION=1.1
NAME=YAOGAN 4
NICKNAME=YAOGAN 4
TLE1=1 33446U 08061A   17186.20411016  .00000050  00000-0  13846-4 0  9994
TLE2=2 33446  97.5940 182.1697 0014523 240.2631 119.7136 14.76669293462680
